STARLINK-31548          
1 59193U 24045R   26068.14428684 -.00002956  00000+0 -98027-4 0  9994
2 59193  43.0008  95.9930 0001226 264.6986  95.3726 15.27554730113074
NUSAT-48 (HENRIETTA LE*)
1 60498U 24149AG  26068.80506098  .00012988  00000+0  45212-3 0  9999
2 60498  97.3923 150.8264 0002754 263.3026  96.7901 15.29812597 86946
